{"fetched_at":"2026-04-05T12:57:33Z","count":17389,"tles":[{"name":"BEIDOU-3S IGSO-1S (C31)","line1":"1 40549U 15019A   26082.29086919 -.00000163  00000+0  00000+0 0  9999","line2":"2 40549  49.3559 296.4949 0036261 190.1236 255.1180  1.00268843 40213","category":"GPS"}]}